SIRION PATHFINDER-2     
1 43759U 18099B   26155.09975639  .00005832  00000+0  32069-3 0  9992
2 43759  97.4255 204.4687 0008286 356.1424   3.9743 15.14427297410645
CORVUS BC4              
1 43767U 18099K   26155.35326193  .00004976  00000+0  29008-3 0  9992
2 43767  97.4067 198.7097 0009457  53.6519 306.5583 15.12386307410468
M2 PATHFINDER           
1 45727U 20037E   26155.74395684  .00003529  00000+0  25553-3 0  9993
2 45727  97.8151 346.8349 0011372 189.4235 170.6779 15.04617610323625
NETSAT-4                
1 46504U 20068U   26154.57661827  .00018989  00000+0  42675-3 0  9996
2 46504  97.8606 161.7287 0005699  30.7472 329.4107 15.43386179313674
NETSAT-3                
1 46505U 20068V   26154.57235990  .00019667  00000+0  45992-3 0  9994
2 46505  97.8653 159.9578 0006067  46.7511 313.4240 15.42183437313582
NETSAT-1                
1 46506U 20068W   26155.22385502  .00015061  00000+0  45524-3 0  9998
2 46506  97.8744 155.1432 0006370  67.0325 293.1588 15.34317185313317
NETSAT-2                
1 46507U 20068X   26154.57013299  .00024586  00000+0  51556-3 0  9991
2 46507  97.8621 161.5679 0005193  62.6477 297.5299 15.45384645313636
GREENCUBE (IO-117)      
1 53109U 22080E   26152.46502029 -.00000003  00000+0  00000+0 0  9996
2 53109  70.1435 303.7143 0008869 293.3663  66.6064  6.42583280 91055
SITRO-AIS 5 (KATYS)     
1 57176U 23091L   26155.70353062  .00013766  00000+0  48772-3 0  9999
2 57176  97.5061 219.4867 0012543 142.1296 218.0829 15.29155996162431
SITRO-AIS 6 (CHIRKIN)   
1 57192U 23091AC  26155.71947160  .00011774  00000+0  46379-3 0  9994
2 57192  97.5069 218.6875 0012760 145.1634 215.0441 15.25686416162380
SITRO-AIS 8 (ANOKHIN)   
1 57193U 23091AD  26155.21955926  .00016586  00000+0  54161-3 0  9993
2 57193  97.5058 220.5348 0011704 139.8166 220.3943 15.31768845162462
SITRO-AIS 7 (FARTUSHNIY)
1 57194U 23091AE  26155.72009250  .00011572  00000+0  46013-3 0  9997
2 57194  97.5067 218.5194 0012599 146.0998 214.1048 15.25380495162376
SITRO-AIS 10 (BURDAEV)  
1 57199U 23091AK  26155.24002859  .00022502  00000+0  60067-3 0  9997
2 57199  97.5081 225.4777 0007992 118.0781 242.1273 15.38097459162775
SITRO-AIS 9 (SHCHUKIN)  
1 57201U 23091AM  26155.26238543  .00022310  00000+0  60467-3 0  9995
2 57201  97.5080 225.2404 0008208 118.1889 242.0185 15.37627915162769
SITRO-AIS 12 (SMIRENNIY)
1 57204U 23091AQ  26155.25544230  .00021792  00000+0  58532-3 0  9993
2 57204  97.5094 225.6926 0007849 113.2192 246.9880 15.37915387162783
SITRO-AIS 11 (SHEFFER)  
1 57208U 23091AU  26155.27238560  .00023268  00000+0  61639-3 0  9997
2 57208  97.5091 225.9484 0007781 113.0378 247.1688 15.38328724162801
SITRO-AIS 25            
1 59066U 24039R   26155.84716310  .00004223  00000+0  32914-3 0  9995
2 59066  95.3908 226.6130 0145180  12.0582 348.4058 14.93441424122888
SITRO-AIS 26            
1 59067U 24039S   26155.84685723  .00004071  00000+0  31889-3 0  9990
2 59067  95.3908 226.5131 0145516  12.6248 347.8559 14.93238316122879
SITRO-AIS 27            
1 59068U 24039T   26155.88754909  .00004562  00000+0  35391-3 0  9995
2 59068  95.3914 226.8069 0144528  11.2108 349.2279 14.93659457122904
SITRO-AIS 28            
1 59071U 24039U   26155.86527039  .00004468  00000+0  34652-3 0  9993
2 59071  95.3912 226.8382 0144348  11.0754 349.3591 14.93691187122903
GRBBETA                 
1 60237U 24128C   26155.74246985  .00004952  00000+0  34080-3 0  9996
2 60237  61.9904 259.9266 0042354 132.1755 228.2947 15.06546882104396
OOV-CUBE (TUBSAT-30)    
1 60240U 24128F   26155.74554433  .00003151  00000+0  24510-3 0  9997
2 60240  61.9957 268.9543 0046170 130.9825 229.5275 15.02715744104243
ROBUSTA-3A (MEDITERRAN*)
1 60243U 24128J   26154.83857688  .00009406  00000+0  55287-3 0  9991
2 60243  61.9869 255.4438 0043220 125.2822 235.2328 15.11490826104401
LASARSAT                
1 62391U 24247Q   26154.92379714  .00036882  00000+0  75515-3 0  9992
2 62391  44.9754 336.7002 0008047 258.6055 101.3931 15.45494859 81266
CROCUBE                 
1 62394U 24247T   26150.99870369  .00044257  00000+0  86081-3 0  9995
2 62394  44.9730 356.3242 0007341 240.2660 119.7500 15.46917883 80680
FORESAIL-1 PRIME        
1 66778U 25276DS  26155.14794669  .00006207  00000+0  30341-3 0  9999
2 66778  97.4201 228.6583 0003571 130.8707 229.2838 15.18578195 28425
KNACKSAT-2              
1 67683U 98067XZ  26153.80264404  .00045408  00000+0  58253-3 0  9991
2 67683  51.6300   6.7601 0010958 153.2067 206.9494 15.58609395 18031
